{
    "links": {
        "self": "http://www.neowsapp.com/rest/v1/neo/3986839?api_key=iIulBulltgU6a56xZRHN4H3l9WmuAYTsLGpBGhQ2"
    },
    "id": "3986839",
    "neo_reference_id": "3986839",
    "name": "(2020 BH3)",
    "designation": "2020 BH3",
    "nasa_jpl_url": "http://ssd.jpl.nasa.gov/sbdb.cgi?sstr=3986839",
    "absolute_magnitude_h": 26.074,
    "estimated_diameter": {
        "kilometers": {
            "estimated_diameter_min": 0.0162089535,
            "estimated_diameter_max": 0.0362443219
        },
        "meters": {
            "estimated_diameter_min": 16.2089535091,
            "estimated_diameter_max": 36.2443218905
        },
        "miles": {
            "estimated_diameter_min": 0.0100717737,
            "estimated_diameter_max": 0.0225211705
        },
        "feet": {
            "estimated_diameter_min": 53.1789830308,
            "estimated_diameter_max": 118.9118210311
        }
    },
    "is_potentially_hazardous_asteroid": false,
    "close_approach_data": [
        {
            "close_approach_date": "2014-08-11",
            "close_approach_date_full": "2014-Aug-11 14:30",
            "epoch_date_close_approach": 1407767400000,
            "relative_velocity": {
                "kilometers_per_second": "13.567969902",
                "kilometers_per_hour": "48844.6916471039",
                "miles_per_hour": "30350.1918737241"
            },
            "miss_distance": {
                "astronomical": "0.0883352948",
                "lunar": "34.3624296772",
                "kilometers": "13214771.947902076",
                "miles": "8211278.5263816088"
            },
            "orbiting_body": "Mars"
        },
        {
            "close_approach_date": "2016-05-08",
            "close_approach_date_full": "2016-May-08 07:39",
            "epoch_date_close_approach": 1462693140000,
            "relative_velocity": {
                "kilometers_per_second": "21.0362776142",
                "kilometers_per_hour": "75730.599410985",
                "miles_per_hour": "47056.0493951201"
            },
            "miss_distance": {
                "astronomical": "0.4578049473",
                "lunar": "178.0861244997",
                "kilometers": "68486644.991542251",
                "miles": "42555627.8670590238"
            },
            "orbiting_body": "Earth"
        },
        {
            "close_approach_date": "2018-04-17",
            "close_approach_date_full": "2018-Apr-17 15:40",
            "epoch_date_close_approach": 1523979600000,
            "relative_velocity": {
                "kilometers_per_second": "10.9929938418",
                "kilometers_per_hour": "39574.7778305912",
                "miles_per_hour": "24590.2279247915"
            },
            "miss_distance": {
                "astronomical": "0.1208632947",
                "lunar": "47.0158216383",
                "kilometers": "18080891.448302289",
                "miles": "11234944.9746540282"
            },
            "orbiting_body": "Earth"
        },
        {
            "close_approach_date": "2020-01-26",
            "close_approach_date_full": "2020-Jan-26 11:49",
            "epoch_date_close_approach": 1580039340000,
            "relative_velocity": {
                "kilometers_per_second": "6.8065531948",
                "kilometers_per_hour": "24503.5915011382",
                "miles_per_hour": "15225.57884136"
            },
            "miss_distance": {
                "astronomical": "0.013076064",
                "lunar": "5.086588896",
                "kilometers": "1956151.32238368",
                "miles": "1215496.068427584"
            },
            "orbiting_body": "Earth"
        },
        {
            "close_approach_date": "2021-12-28",
            "close_approach_date_full": "2021-Dec-28 09:33",
            "epoch_date_close_approach": 1640683980000,
            "relative_velocity": {
                "kilometers_per_second": "14.6607189421",
                "kilometers_per_hour": "52778.5881914977",
                "miles_per_hour": "32794.5622015448"
            },
            "miss_distance": {
                "astronomical": "0.2378125247",
                "lunar": "92.5090721083",
                "kilometers": "35576247.154442389",
                "miles": "22106054.9103834082"
            },
            "orbiting_body": "Earth"
        }
    ],
    "orbital_data": {
        "orbit_id": "3",
        "orbit_determination_date": "2020-01-25 05:44:55",
        "first_observation_date": "2020-01-21",
        "last_observation_date": "2020-01-24",
        "data_arc_in_days": 3,
        "observations_used": 21,
        "orbit_uncertainty": "7",
        "minimum_orbit_intersection": ".00412787",
        "jupiter_tisserand_invariant": "4.331",
        "epoch_osculation": "2459000.5",
        "eccentricity": ".3977134630179802",
        "semi_major_axis": "1.565005344933708",
        "inclination": ".4396078548657793",
        "ascending_node_longitude": "155.2288176533822",
        "orbital_period": "715.1088693726252",
        "perihelion_distance": ".9425816495584743",
        "perihelion_argument": "358.1352706600719",
        "aphelion_distance": "2.187429040308941",
        "perihelion_time": "2458897.628376251984",
        "mean_anomaly": "51.78761743198069",
        "mean_motion": ".5034198503450711",
        "equinox": "J2000",
        "orbit_class": {
            "orbit_class_type": "APO",
            "orbit_class_description": "Near-Earth asteroid orbits which cross the Earth’s orbit similar to that of 1862 Apollo",
            "orbit_class_range": "a (semi-major axis) > 1.0 AU; q (perihelion) < 1.017 AU"
        }
    },
    "is_sentry_object": false
}